NORAD_CAT_ID,OBJECT_NAME,OBJECT_TYPE,EPOCH,MEAN_MOTION,ECCENTRICITY,INCLINATION,RA_OF_ASC_NODE,ARG_OF_PERICENTER,MEAN_ANOMALY,BSTAR,MEAN_MOTION_DOT,MEAN_MOTION_DDOT,TLE_LINE0,TLE_LINE1,TLE_LINE2,SEMIMAJOR_AXIS,PERIOD,APOGEE,PERIGEE,DECAYED
49766.0,STARLINK-3190,PAYLOAD,2022-05-10 14:00:01,15.08842449,0.0001865,53.2185,299.9505,48.0889,235.6589,-0.0013629,-0.00021915,0.0,0 STARLINK-3190,1 49766U 21115AU  22130.58334491 -.00021915  00000-0 -13629-2 0  9990,2 49766  53.2185 299.9505 0001865  48.0889 235.6589 15.08842449  3594,6917.873000000001,95.437,541.028,538.448,0.0
49766.0,STARLINK-3190,PAYLOAD,2022-05-10 19:06:24,15.08835412,0.0001908,53.2206,298.995,42.2036,317.9103,6.757100000000001e-05,7.87e-06,0.0,0 STARLINK-3190,1 49766U 21115AU  22130.79611943  .00000787  00000-0  67571-4 0  9992,2 49766  53.2206 298.9950 0001908  42.2036 317.9103 15.08835412 24499,6917.894,95.438,541.0790000000002,538.439,0.0
49766.0,STARLINK-3190,PAYLOAD,2022-05-11 22:00:00,15.08807497,0.0002035,53.2185,293.9665,40.5174,289.5497,0.0032552,0.00051854,0.0,0 STARLINK-3190,1 49766U 21115AU  22131.91667824  .00051854  00000-0  32552-2 0  9996,2 49766  53.2185 293.9665 0002035  40.5174 289.5497 15.08807497 25773,6917.98,95.44,541.253,538.437,0.0
49766.0,STARLINK-3190,PAYLOAD,2022-05-12 14:00:01,15.08865494,0.0001935,53.219,290.9725,44.9589,308.2766,-0.0012542,-0.00020208,0.0,0 STARLINK-3190,1 49766U 21115AU  22132.58334491 -.00020208  00000-0 -12542-2 0  9999,2 49766  53.2190 290.9725 0001935  44.9589 308.2766 15.08865494  1301,6917.802,95.436,541.006,538.3290000000002,0.0
49766.0,STARLINK-3190,PAYLOAD,2022-05-12 20:00:01,15.08850199,0.0002065,53.219,289.8513,40.6219,231.3347,0.00028812,4.302e-05,0.0,0 STARLINK-3190,1 49766U 21115AU  22132.83334491  .00004302  00000-0  28812-3 0  9990,2 49766  53.2190 289.8513 0002065  40.6219 231.3347 15.08850199 25911,6917.849,95.437,541.143,538.286,0.0
49766.0,STARLINK-3190,PAYLOAD,2022-05-12 22:00:00,15.08848389,0.0002033,53.2188,289.4772,38.922,325.9386,0.00044848,6.858e-05,0.0,0 STARLINK-3190,1 49766U 21115AU  22132.91667824  .00006858  00000-0  44848-3 0  9993,2 49766  53.2188 289.4772 0002033  38.9220 325.9386 15.08848389  1306,6917.855,95.437,541.126,538.313,0.0
49766.0,STARLINK-3190,PAYLOAD,2022-05-13 14:00:01,15.08854109,0.0001948,53.2193,286.4833,44.4683,343.6005,-0.0022233,-0.00035512,0.0,0 STARLINK-3190,1 49766U 21115AU  22133.58334491 -.00035512  00000-0 -22233-2 0  9992,2 49766  53.2193 286.4833 0001948  44.4683 343.6005 15.08854109  1308,6917.837,95.437,541.05,538.355,0.0
49766.0,STARLINK-3190,PAYLOAD,2022-05-13 22:00:00,15.08826113,0.0002037,53.2189,284.9878,39.1118,0.5568,4.7262e-05,4.64e-06,0.0,0 STARLINK-3190,1 49766U 21115AU  22133.91667824  .00000464  00000-0  47262-4 0  9995,2 49766  53.2189 284.9878 0002037  39.1118   0.5568 15.08826113 26077,6917.9230000000025,95.438,541.197,538.379,0.0
49766.0,STARLINK-3190,PAYLOAD,2022-05-14 14:00:01,15.08853468,0.0001899,53.2193,281.9944,42.379,20.4478,-0.0010431,-0.00016857,0.0,0 STARLINK-3190,1 49766U 21115AU  22134.58334491 -.00016857  00000-0 -10431-2 0  9991,2 49766  53.2193 281.9944 0001899  42.3790  20.4478 15.08853468  1303,6917.839,95.437,541.018,538.391,0.0
49766.0,STARLINK-3190,PAYLOAD,2022-05-14 22:00:00,15.08858839,0.0001982,53.2188,280.4986,36.9924,37.4423,-0.00038948,-6.485e-05,0.0,0 STARLINK-3190,1 49766U 21115AU  22134.91667824 -.00006485  00000-0 -38948-3 0  9997,2 49766  53.2188 280.4986 0001982  36.9924  37.4423 15.08858839 26221,6917.823,95.436,541.059,538.317,0.0
49766.0,STARLINK-3190,PAYLOAD,2022-05-15 14:00:01,15.08848069,0.0001905,53.2186,277.5036,41.2279,56.4476,-0.0023725,-0.00037857,0.0,0 STARLINK-3190,1 49766U 21115AU  22135.58335648 -.00037857  00000-0 -23725-2 0  9990,2 49766  53.2186 277.5036 0001905  41.2279  56.4476 15.08848069 26323,6917.856,95.437,541.039,538.403,0.0
49766.0,STARLINK-3190,PAYLOAD,2022-05-15 22:00:00,15.08844628,0.0002005,53.2187,276.0096,37.5846,71.6259,0.0012135,0.0001908,0.0,0 STARLINK-3190,1 49766U 21115AU  22135.91667824  .00019080  00000-0  12135-2 0  9990,2 49766  53.2187 276.0096 0002005  37.5846  71.6259 15.08844628 26374,6917.866,95.437,541.118,538.344,0.0
49766.0,STARLINK-3190,PAYLOAD,2022-05-16 06:00:02,15.08815243,0.0001733,53.2188,274.5116,41.054,79.8308,0.0023803,0.00037772,0.0,0 STARLINK-3190,1 49766U 21115AU  22136.25002315  .00037772  00000-0  23803-2 0  9998,2 49766  53.2188 274.5116 0001733  41.0540  79.8308 15.08815243 26421,6917.956,95.439,541.02,538.622,0.0
49766.0,STARLINK-3190,PAYLOAD,2022-05-16 14:00:01,15.08854612,0.0001836,53.2189,273.0167,38.6382,93.7559,-0.0040485,-0.00064173,0.0,0 STARLINK-3190,1 49766U 21115AU  22136.58334491 -.00064173  00000-0 -40485-2 0  9999,2 49766  53.2189 273.0167 0001836  38.6382  93.7559 15.08854612  1308,6917.8359999999975,95.437,540.971,538.431,0.0
49766.0,STARLINK-3190,PAYLOAD,2022-05-16 22:00:00,15.08833107,0.0001954,53.2185,271.5208,34.3171,109.6687,-0.0012276,-0.00019769,0.0,0 STARLINK-3190,1 49766U 21115AU  22136.91667824 -.00019769  00000-0 -12276-2 0  9993,2 49766  53.2185 271.5208 0001954  34.3171 109.6687 15.08833107 26529,6917.901,95.438,541.118,538.415,0.0
49766.0,STARLINK-3190,PAYLOAD,2022-05-17 14:00:01,15.08837839,0.0001954,53.2188,268.5281,39.0357,128.1605,-0.00081977,-0.00013311,0.0,0 STARLINK-3190,1 49766U 21115AU  22137.58335648 -.00013311  00000-0 -81977-3 0  9995,2 49766  53.2188 268.5281 0001954  39.0357 128.1605 15.08837839 26620,6917.887,95.438,541.104,538.4,0.0
49766.0,STARLINK-3190,PAYLOAD,2022-05-17 22:00:01,15.08850231,0.0002016,53.2185,267.032,33.8825,144.9125,-0.00069962,-0.00011409,0.0,0 STARLINK-3190,1 49766U 21115AU  22137.91668981 -.00011409  00000-0 -69962-3 0  9997,2 49766  53.2185 267.0320 0002016  33.8825 144.9125 15.08850231  1309,6917.849,95.437,541.109,538.319,0.0
49766.0,STARLINK-3190,PAYLOAD,2022-05-18 06:00:00,15.08823106,0.0001813,53.2187,265.5342,37.4719,152.869,0.0038506,0.00061501,0.0,0 STARLINK-3190,1 49766U 21115AU  22138.25001157  .00061501  00000-0  38506-2 0  9996,2 49766  53.2187 265.5342 0001813  37.4719 152.8690 15.08823106 26723,6917.932,95.439,541.0509999999998,538.543,0.0
49766.0,STARLINK-3190,PAYLOAD,2022-05-18 14:00:01,15.08881241,0.0001995,53.2188,264.0395,35.3864,166.554,-0.0029284,-0.00046646,0.0,0 STARLINK-3190,1 49766U 21115AU  22138.58334491 -.00046646  00000-0 -29284-2 0  9990,2 49766  53.2188 264.0395 0001995  35.3864 166.5540 15.08881241  1302,6917.754,95.435,540.999,538.239,0.0
49766.0,STARLINK-3190,PAYLOAD,2022-05-18 22:00:00,15.08870899,0.0002073,53.2186,262.5433,32.8647,180.6985,-0.0050263,-0.0007947,0.0,0 STARLINK-3190,1 49766U 21115AU  22138.91667824 -.00079470  00000-0 -50263-2 0  9998,2 49766  53.2186 262.5433 0002073  32.8647 180.6985 15.08870899 26837,6917.786,95.436,541.085,538.217,0.0
49766.0,STARLINK-3190,PAYLOAD,2022-05-19 14:00:01,15.08827903,0.0002215,53.2189,259.5509,38.9157,197.8616,0.00025229,3.728e-05,0.0,0 STARLINK-3190,1 49766U 21115AU  22139.58335648  .00003728  00000-0  25229-3 0  9994,2 49766  53.2189 259.5509 0002215  38.9157 197.8616 15.08827903  1305,6917.917,95.438,541.315,538.25,0.0
49766.0,STARLINK-3190,PAYLOAD,2022-05-19 22:00:00,15.08867482,0.0002213,53.2188,258.0546,36.3131,211.9864,-0.0012635,-0.00020356,0.0,0 STARLINK-3190,1 49766U 21115AU  22139.91667824 -.00020356  00000-0 -12635-2 0  9999,2 49766  53.2188 258.0546 0002213  36.3131 211.9864 15.08867482 26981,6917.795999999999,95.436,541.192,538.13,0.0
49766.0,STARLINK-3190,PAYLOAD,2022-05-20 14:00:01,15.08854933,0.0002113,53.2189,255.0622,33.6416,237.8847,-0.0030505,-0.00048531,0.0,0 STARLINK-3190,1 49766U 21115AU  22140.58334491 -.00048531  00000-0 -30505-2 0  9996,2 49766  53.2189 255.0622 0002113  33.6416 237.8847 15.08854933  1303,6917.835,95.437,541.161,538.238,0.0
49766.0,STARLINK-3190,PAYLOAD,2022-05-20 22:00:00,15.08843825,0.000209,53.2186,253.5655,29.991,253.1236,-0.0033015,-0.00052456,0.0,0 STARLINK-3190,1 49766U 21115AU  22140.91667824 -.00052456  00000-0 -33015-2 0  9992,2 49766  53.2186 253.5655 0002090  29.9910 253.1236 15.08843825  1301,6917.869000000002,95.437,541.18,538.288,0.0
49766.0,STARLINK-3190,PAYLOAD,2022-05-21 06:00:00,15.0879245,0.0001945,53.2189,252.068,35.5772,259.1346,0.0035739,0.00056977,0.0,0 STARLINK-3190,1 49766U 21115AU  22141.25001157  .00056977  00000-0  35739-2 0  9996,2 49766  53.2189 252.0680 0001945  35.5772 259.1346 15.08792450 27182,6918.026,95.441,541.236,538.545,0.0
49766.0,STARLINK-3190,PAYLOAD,2022-05-21 14:00:01,15.08828498,0.000212,53.2188,250.5735,32.9153,273.41700000000003,-4.9560000000000005e-06,-3.67e-06,0.0,0 STARLINK-3190,1 49766U 21115AU  22141.58335648 -.00000367  00000-0 -49560-5 0  9991,2 49766  53.2188 250.5735 0002120  32.9153 273.4170 15.08828498  1307,6917.916,95.438,541.247,538.314,0.0
49766.0,STARLINK-3190,PAYLOAD,2022-05-21 22:00:00,15.08854395,0.0002064,53.2184,249.0768,30.1273,287.7326,-0.0023846,-0.00038055,0.0,0 STARLINK-3190,1 49766U 21115AU  22141.91667824 -.00038055  00000-0 -23846-2 0  9993,2 49766  53.2184 249.0768 0002064  30.1273 287.7326 15.08854395 27283,6917.8359999999975,95.437,541.129,538.274,0.0
49766.0,STARLINK-3190,PAYLOAD,2022-05-22 14:00:01,15.08846287,0.000204,53.2185,246.0848,29.7344,311.3116,-0.0020611,-0.00032947,0.0,0 STARLINK-3190,1 49766U 21115AU  22142.58334491 -.00032947  00000-0 -20611-2 0  9999,2 49766  53.2185 246.0848 0002040  29.7344 311.3116 15.08846287 27380,6917.861,95.437,541.137,538.315,0.0
49766.0,STARLINK-3190,PAYLOAD,2022-05-22 22:00:01,15.08848982,0.0002035,53.218,244.5877,29.3347,323.3759,-0.0015988,-0.0002565,0.0,0 STARLINK-3190,1 49766U 21115AU  22142.91668981 -.00025650  00000-0 -15988-2 0  9994,2 49766  53.2180 244.5877 0002035  29.3347 323.3759 15.08848982 27439,6917.853,95.437,541.126,538.31,0.0
